STARLINK-4416           
1 53212U 22084Z   24085.17136286 -.00000328  00000+0 -20971-4 0  9999
2 53212  97.6512 147.2113 0002482  80.8656 279.2849 15.01254506 92497
STARLINK-4414           
1 53213U 22084AA  24084.89549780  .00001663  00000+0  13400-3 0  9994
2 53213  97.6555 146.9295 0002064  88.6277 271.5184 15.01263212 92450
STARLINK-4353           
1 53214U 22084AB  24085.16949374  .00008138  00000+0  63683-3 0  9991
2 53214  97.6515 147.2075 0002784  93.2768 266.8775 15.01294322 92496
STARLINK-4335           
1 53215U 22084AC  24085.16025117  .00001768  00000+0  14220-3 0  9997
2 53215  97.6542 147.1914 0001723  91.9324 268.2097 15.01261793 92492
STARLINK-4376           
1 53216U 22084AD  24085.16579901  .00003977  00000+0  31394-3 0  9998
2 53216  97.6534 147.2009 0002082  80.1076 280.0383 15.01273987 92491
STARLINK-4379           
1 53217U 22084AE  24085.14913038  .00002868  00000+0  22772-3 0  9998
2 53217  97.6544 147.1965 0000646 220.0335 140.0842 15.01267067 92497
STARLINK-4384           
1 53218U 22084AF  24084.88462191  .00047864  00000+0  37031-2 0  9996
2 53218  97.6541 146.9483 0000540  98.9429 261.1856 15.01289090 92597
STARLINK-4373           
1 53219U 22084AG  24084.88622662  .00007246  00000+0  56790-3 0  9992
2 53219  97.6542 146.9200 0000550 236.1426 123.9746 15.01278508 92089
STARLINK-4363           
1 53220U 22084AH  24084.89179266  .00004923  00000+0  38758-3 0  9995
2 53220  97.6546 146.9269 0001366  99.6753 260.4626 15.01264515 92088
STARLINK-4377           
1 53221U 22084AJ  24085.15099292  .00002488  00000+0  19822-3 0  9991
2 53221  97.6542 147.1793 0000127 218.2255 141.8961 15.01258696 92111
STARLINK-4381           
1 53222U 22084AK  24084.88993254  .00007087  00000+0  55553-3 0  9993
2 53222  97.6548 146.9235 0001653  89.5329 270.6084 15.01277093 92076
STARLINK-4354           
1 53223U 22084AL  24084.89017940  .00002302  00000+0  18374-3 0  9999
2 53223  97.6542 146.9075 0001072  93.1381 266.9966 15.01267101 92073
STARLINK-4356           
1 53224U 22084AM  24084.88809219  .00005490  00000+0  43167-3 0  9996
2 53224  97.6542 146.9228 0000709 102.9536 257.1767 15.01260167 92088
STARLINK-4358           
1 53225U 22084AN  24084.87882794 -.00001386  00000+0 -10332-3 0  9995
2 53225  97.6539 146.9121 0001210 235.7882 124.3227 15.01256611 92078
STARLINK-4359           
1 53226U 22084AP  24085.14356906  .00062724  00000+0  48379-2 0  9990
2 53226  97.6542 147.1856 0002841 237.3525 122.7425 15.01312244 92127
STARLINK-4366           
1 53227U 22084AQ  24085.13662064 -.00331727  00000+0 -28962-1 0  9994
2 53227  97.6550 147.1761 0009883  57.4883 302.7293 14.98593450 92110
STARLINK-4365           
1 53228U 22084AR  24084.88067017  .00002535  00000+0  20188-3 0  9997
2 53228  97.6548 146.9125 0000959 237.6555 122.4576 15.01263513 92077
STARLINK-4367           
1 53229U 22084AS  24084.74181524  .00000628  00000+0  53488-4 0  9994
2 53229  97.6546 146.7737 0003059 241.6628 118.4288 15.01255899 92054
STARLINK-4364           
1 53230U 22084AT  24084.87906402  .00002893  00000+0  22972-3 0  9999
2 53230  97.6542 146.9069 0001618 261.6247  98.4793 15.01264145 92074
STARLINK-4370           
1 53231U 22084AU  24084.73810453  .00004472  00000+0  35246-3 0  9998
2 53231  97.6545 146.7696 0003633 220.5871 139.5083 15.01270489 92053
STARLINK-4371           
1 53232U 22084AV  24085.13987851  .00023788  00000+0  18493-2 0  9996
2 53232  97.6545 147.1678 0002573 246.2914 113.8041 15.01281515 92112
STARLINK-4372           
1 53233U 22084AW  24084.73465259  .00002495  00000+0  19876-3 0  9994
2 53233  97.6558 146.7705 0003191 198.4687 161.6422 15.01265192 92055
STARLINK-4368           
1 53234U 22084AX  24085.13617267  .00005771  00000+0  45330-3 0  9992
2 53234  97.6547 147.1595 0002899 210.4034 149.7022 15.01275005 92126
STARLINK-4056           
1 53242U 22086A   24085.23822737  .00036039  00000+0  22693-2 0  9991
2 53242  53.2172 166.4100 0001809  82.8024 277.3174 15.08866181 92958
STARLINK-4047           
1 53243U 22086B   24084.94518921  .00028065  00000+0  17735-2 0  9997
2 53243  53.2177 172.4209 0001641  77.1595 282.9580 15.08859411 93362
STARLINK-4125           
1 53244U 22086C   24085.23593076 -.00001383  00000+0 -68788-4 0  9997
2 53244  53.2162 171.5063 0001779 113.4313 246.6866 15.08851048 92887
STARLINK-4124           
1 53245U 22086D   24085.25001157  .01408347  00000+0  19671-1 0  9998
2 53245  53.2152 168.5857 0001350  86.0315 335.2566 15.53753893 92922
STARLINK-4131           
1 53246U 22086E   24085.23224754  .00001617  00000+0  11963-3 0  9993
2 53246  53.2158 171.4477 0001489  72.4480 287.6674 15.08845548 92889
STARLINK-4061           
1 53247U 22086F   24085.25296445 -.00008197  00000+0 -49758-3 0  9997
2 53247  53.2165 166.5354 0001636  89.3830 270.7349 15.08835902 92950
STARLINK-4135           
1 53248U 22086G   24085.24193377  .00001257  00000+0  97067-4 0  9992
2 53248  53.2165 166.5082 0001126  99.9780 260.1340 15.08838366 92955
STARLINK-4128           
1 53249U 22086H   24085.24515916 -.00008914  00000+0 -54270-3 0  9997
2 53249  53.2176 161.3995 0001336  89.3653 270.7492 15.08839303 93025
STARLINK-4059           
1 53250U 22086J   24084.91669301  .00004520  00000+0  30180-3 0  9991
2 53250  53.2163 162.8633 0001381  94.9489 265.1661 15.08852880 93174
STARLINK-4129           
1 53251U 22086K   24084.90563663  .00008540  00000+0  55346-3 0  9992
2 53251  53.2173 162.9111 0001451  80.0435 280.0721 15.08875145 93153
STARLINK-4132           
1 53252U 22086L   24085.24053650 -.00001020  00000+0 -46043-4 0  9994
2 53252  53.2162 161.3541 0001321  79.6734 280.4406 15.08820945 93022
STARLINK-4133           
1 53253U 22086M   24084.50454287  .00017562  00000+0  11186-2 0  9998
2 53253  53.2163 164.7132 0000977  86.1214 273.9889 15.08846247 92911
STARLINK-4134           
1 53254U 22086N   24085.24149645 -.00001796  00000+0 -94811-4 0  9992
2 53254  53.2165 161.4116 0001951  89.6944 270.4271 15.08823738 93021
STARLINK-4142           
1 53255U 22086P   24085.22581444  .00007380  00000+0  48133-3 0  9996
2 53255  53.2174 161.4763 0000676  88.4176 271.6893 15.08836812 93027
STARLINK-4147           
1 53256U 22086Q   24085.22949570  .00002439  00000+0  17129-3 0  9996
2 53256  53.2169 161.4572 0001658  80.3361 279.7818 15.08837610 93021
STARLINK-4144           
1 53257U 22086R   24084.48613141  .00001626  00000+0  12026-3 0  9994
2 53257  53.2165 164.7959 0001576  76.0302 284.0865 15.08840679 93096
STARLINK-4127           
1 53258U 22086S   24085.22212941  .00002160  00000+0  15374-3 0  9994
2 53258  53.2168 161.4861 0001718 109.1301 250.9877 15.08842929 93029
STARLINK-4140           
1 53259U 22086T   24084.91296042  .00013767  00000+0  88054-3 0  9994
2 53259  53.2179 162.5175 0000995  65.9813 294.1283 15.08875163 92986
STARLINK-4136           
1 53260U 22086U   24084.95348390  .00056106  00000+0  35102-2 0  9993
2 53260  53.2167 162.6966 0001868  88.7722 271.3485 15.08894425 92989
STARLINK-4062           
1 53261U 22086V   24084.93876897  .00051085  00000+0  32010-2 0  9996
2 53261  53.2163 162.7602 0002096  78.6442 281.4786 15.08881845 92983
STARLINK-4085           
1 53262U 22086W   24085.21109156  .00003531  00000+0  23977-3 0  9992
2 53262  53.2160 161.5378 0003226  89.1433 270.9929 15.08849462 93028
STARLINK-4130           
1 53263U 22086X   24085.20004329 -.00009999  00000+0 -61133-3 0  9990
2 53263  53.2155 161.5857 0001168 115.2996 244.8117 15.08822026 93029
STARLINK-3950           
1 53264U 22086Y   24085.20740571  .00014415  00000+0  92186-3 0  9996
2 53264  53.2159 161.5563 0001312 110.3488 249.7645 15.08843046 93026
STARLINK-4097           
1 53265U 22086Z   24084.92772475  .00029020  00000+0  18315-2 0  9992
2 53265  53.2166 162.8061 0001172  69.6291 290.4827 15.08888791 92989
STARLINK-4058           
1 53266U 22086AA  24085.19638559  .00004422  00000+0  29582-3 0  9995
2 53266  53.2175 161.6065 0001604  97.1223 262.9951 15.08834509 93028
STARLINK-4060           
1 53267U 22086AB  24084.92038406  .00002363  00000+0  16653-3 0  9998
2 53267  53.2160 162.8398 0001758  60.3057 299.8110 15.08838798 92986
STARLINK-4109           
1 53268U 22086AC  24084.59283087  .00004740  00000+0  31548-3 0  9990
2 53268  53.2178 164.3133 0001412  97.0787 263.0366 15.08867708 93119
STARLINK-4057           
1 53269U 22086AD  24085.17892560 -.00007045  00000+0 -42545-3 0  9990
2 53269  53.2167 151.6822 0000381  51.7944 308.3083 15.08803868 93158
STARLINK-4069           
1 53271U 22086AF  24084.91667824  .01396741  00000+0  11778-1 0  9992
2 53271  53.2164 148.1738 0001305  73.9170 215.7268 15.66619980  5826
STARLINK-4122           
1 53272U 22086AG  24085.18256966  .00004286  00000+0  28731-3 0  9992
2 53272  53.2153 151.6688 0001484  92.8745 267.2417 15.08831203 93155
STARLINK-4051           
1 53273U 22086AH  24085.16417641 -.00005716  00000+0 -34151-3 0  9994
2 53273  53.2158 151.7485 0001617 117.8672 242.2484 15.08821096 93158
STARLINK-4050           
1 53274U 22086AJ  24085.17522656 -.00002170  00000+0 -11838-3 0  9997
2 53274  53.2170 151.6996 0001213  92.6794 267.4337 15.08816043 93158
STARLINK-4179           
1 53275U 22086AK  24085.16049472  .00007400  00000+0  48242-3 0  9995
2 53275  53.2163 151.7699 0003440  87.0299 273.1087 15.08850292 93154
STARLINK-4174           
1 53276U 22086AL  24084.90288631  .00008851  00000+0  57331-3 0  9999
2 53276  53.2160 152.9189 0001286 112.1250 247.9878 15.08853670 93118
STARLINK-4178           
1 53277U 22086AM  24084.88817381  .00014119  00000+0  90301-3 0  9995
2 53277  53.2169 153.0173 0002354  81.1259 279.0000 15.08855818 93113
STARLINK-4180           
1 53278U 22086AN  24084.89184222  .00018882  00000+0  12000-2 0  9998
2 53278  53.2169 152.9719 0001420  87.2632 272.8523 15.08878872 93119
